{"type": "FeatureCollection", "features": [ {"type": "Feature", "properties": {"norad_id": 66422, "name": "STARLINK-35617", "group": "last-30-days", "lat": -42.767838797272915, "lon": -23.62719605870616, "alt_km": 446.9761225587663, "timestamp": "2025-12-10T18:56:58.831653+00:00", "meta": {"OBJECT_NAME": "STARLINK-35617", "OBJECT_ID": "2025-259A", "EPOCH": "2025-12-09T12:12:10.263168", "MEAN_MOTION": 15.40777762, "ECCENTRICITY": 0.00010396, "INCLINATION": 43.0035, "RA_OF_ASC_NODE": 66.7321, "ARG_OF_PERICENTER": 134.0359, "MEAN_ANOMALY": 226.0583, "EPHEMERIS_TYPE": 0, "CLASSIFICATION_TYPE": "U", "NORAD_CAT_ID": 66422, "ELEMENT_SET_NO": 999, "REV_AT_EPOCH": 566, "BSTAR": 0.0020546289, "MEAN_MOTION_DOT": 0.00086728, "MEAN_MOTION_DDOT": 0}, "tle": {"line1": "1 66422U 25259A   25343.50845212  .00086728  00000+0  20546-2 0  9996", "line2": "2 66422  43.0035  66.7321 0001039 134.0359 226.0583 15.40777762  5669"}}, "geometry": {"type": "Point", "coordinates": [-23.62719605870616, -42.767838797272915]}}, {"type": "Feature", "properties": {"norad_id": 66423, "name": "STARLINK-35618", "group": "last-30-days", "lat": -40.71640633165472, "lon": -8.128666203398252, "alt_km": 445.8902954092555, "timestamp": "2025-12-10T18:56:58.831667+00:00", "meta": {"OBJECT_NAME": "STARLINK-35618", "OBJECT_ID": "2025-259B", "EPOCH": "2025-12-10T06:49:10.629984", "MEAN_MOTION": 15.4076482, "ECCENTRICITY": 0.00018, "INCLINATION": 43.0014, "RA_OF_ASC_NODE": 62.2322, "ARG_OF_PERICENTER": 246.4402, "MEAN_ANOMALY": 113.6265, "EPHEMERIS_TYPE": 0, "CLASSIFICATION_TYPE": "U", "NORAD_CAT_ID": 66423, "ELEMENT_SET_NO": 999, "REV_AT_EPOCH": 578, "BSTAR": 0.0021116, "MEAN_MOTION_DOT": 0.00089132, "MEAN_MOTION_DDOT": 0}, "tle": {"line1": "1 66423U 25259B   25344.28415081  .00089132  00000+0  21116-2 0  9996", "line2": "2 66423  43.0014  62.2322 0001800 246.4402 113.6265 15.40764820  5784"}}, "geometry": {"type": "Point", "coordinates": [-8.128666203398252, -40.71640633165472]}}, {"type": "Feature", "properties": {"norad_id": 66424, "name": "STARLINK-35588", "group": "last-30-days", "lat": -36.464777660603445, "lon": 6.815649435486794, "alt_km": 446.05918679806473, "timestamp": "2025-12-10T18:56:58.831679+00:00", "meta": {"OBJECT_NAME": "STARLINK-35588", "OBJECT_ID": "2025-259C", "EPOCH": "2025-12-10T05:12:35.868384", "MEAN_MOTION": 15.40752434, "ECCENTRICITY": 0.0001289, "INCLINATION": 43.0001, "RA_OF_ASC_NODE": 62.5875, "ARG_OF_PERICENTER": 251.1011, "MEAN_ANOMALY": 108.9706, "EPHEMERIS_TYPE": 0, "CLASSIFICATION_TYPE": "U", "NORAD_CAT_ID": 66424, "ELEMENT_SET_NO": 999, "REV_AT_EPOCH": 577, "BSTAR": 0.0019923, "MEAN_MOTION_DOT": 0.00083985, "MEAN_MOTION_DDOT": 0}, "tle": {"line1": "1 66424U 25259C   25344.21708181  .00083985  00000+0  19923-2 0  9999", "line2": "2 66424  43.0001  62.5875 0001289 251.1011 108.9706 15.40752434  5771"}}, "geometry": {"type": "Point", "coordinates": [6.815649435486794, -36.464777660603445]}}, {"type": "Feature", "properties": {"norad_id": 66425, "name": "STARLINK-35555", "group": "last-30-days", "lat": -30.337254479032275, "lon": 20.345591995651393, "alt_km": 446.0544519432724, "timestamp": "2025-12-10T18:56:58.831689+00:00", "meta": {"OBJECT_NAME": "STARLINK-35555", "OBJECT_ID": "2025-259D", "EPOCH": "2025-12-09T15:09:11.364192", "MEAN_MOTION": 15.40774478, "ECCENTRICITY": 4.23e-05, "INCLINATION": 42.9991, "RA_OF_ASC_NODE": 65.9288, "ARG_OF_PERICENTER": 227.84, "MEAN_ANOMALY": 132.2421, "EPHEMERIS_TYPE": 0, "CLASSIFICATION_TYPE": "U", "NORAD_CAT_ID": 66425, "ELEMENT_SET_NO": 999, "REV_AT_EPOCH": 568, "BSTAR": 0.0015088, "MEAN_MOTION_DOT": 0.00063403, "MEAN_MOTION_DDOT": 0}, "tle": {"line1": "1 66425U 25259D   25343.63138153  .00063403  00000+0  15088-2 0  9992", "line2": "2 66425  42.9991  65.9288 0000423 227.8400 132.2421 15.40774478  5680"}}, "geometry": {"type": "Point", "coordinates": [20.345591995651393, -30.337254479032275]}}, {"type": "Feature", "properties": {"norad_id": 66426, "name": "STARLINK-35589", "group": "last-30-days", "lat": -23.66190988004022, "lon": 31.178953826534553, "alt_km": 445.69589552868456, "timestamp": "2025-12-10T18:56:58.831701+00:00", "meta": {"OBJECT_NAME": "STARLINK-35589", "OBJECT_ID": "2025-259E", "EPOCH": "2025-12-10T00:00:02.000160", "MEAN_MOTION": 15.40656297, "ECCENTRICITY": 0.00013887, "INCLINATION": 43.001, "RA_OF_ASC_NODE": 63.7772, "ARG_OF_PERICENTER": 267.7195, "MEAN_ANOMALY": 351.8929, "EPHEMERIS_TYPE": 0, "CLASSIFICATION_TYPE": "U", "NORAD_CAT_ID": 66426, "ELEMENT_SET_NO": 999, "REV_AT_EPOCH": 583, "BSTAR": 0.00072512168, "MEAN_MOTION_DOT": 0.00030062, "MEAN_MOTION_DDOT": 0}, "tle": {"line1": "1 66426U 25259E   25344.00002315  .00030062  00000+0  72512-3 0  9996", "line2": "2 66426  43.0010  63.7772 0001388 267.7195 351.8929 15.40656297  5831"}}, "geometry": {"type": "Point", "coordinates": [31.178953826534553, -23.66190988004022]}}, {"type": "Feature", "properties": {"norad_id": 66427, "name": "STARLINK-35611", "group": "last-30-days", "lat": -15.856412738945265, "lon": 41.44908693049706, "alt_km": 445.0885966878477, "timestamp": "2025-12-10T18:56:58.831711+00:00", "meta": {"OBJECT_NAME": "STARLINK-35611", "OBJECT_ID": "2025-259F", "EPOCH": "2025-12-10T00:00:02.000160", "MEAN_MOTION": 15.40658791, "ECCENTRICITY": 0.00013922, "INCLINATION": 43.001, "RA_OF_ASC_NODE": 63.7457, "ARG_OF_PERICENTER": 274.4381, "MEAN_ANOMALY": 357.6146, "EPHEMERIS_TYPE": 0, "CLASSIFICATION_TYPE": "U", "NORAD_CAT_ID": 66427, "ELEMENT_SET_NO": 999, "REV_AT_EPOCH": 583, "BSTAR": 0.00069946365, "MEAN_MOTION_DOT": 0.00028986, "MEAN_MOTION_DDOT": 0}, "tle": {"line1": "1 66427U 25259F   25344.00002315  .00028986  00000+0  69946-3 0  9996", "line2": "2 66427  43.0010  63.7457 0001392 274.4381 357.6146 15.40658791  5835"}}, "geometry": {"type": "Point", "coordinates": [41.44908693049706, -15.856412738945265]}}, {"type": "Feature", "properties": {"norad_id": 66428, "name": "STARLINK-35610", "group": "last-30-days", "lat": -7.605596219769984, "lon": 50.926880247268066, "alt_km": 444.87900451916175, "timestamp": "2025-12-10T18:56:58.831722+00:00", "meta": {"OBJECT_NAME": "STARLINK-35610", "OBJECT_ID": "2025-259G", "EPOCH": "2025-12-10T00:00:02.000160", "MEAN_MOTION": 15.40584058, "ECCENTRICITY": 0.00016245, "INCLINATION": 43.0009, "RA_OF_ASC_NODE": 63.7155, "ARG_OF_PERICENTER": 247.0402, "MEAN_ANOMALY": 37.5595, "EPHEMERIS_TYPE": 0, "CLASSIFICATION_TYPE": "U", "NORAD_CAT_ID": 66428, "ELEMENT_SET_NO": 999, "REV_AT_EPOCH": 583, "BSTAR": 0.0017416795, "MEAN_MOTION_DOT": 0.00072867, "MEAN_MOTION_DDOT": 0}, "tle": {"line1": "1 66428U 25259G   25344.00002315  .00072867  00000+0  17417-2 0  9999", "line2": "2 66428  43.0009  63.7155 0001624 247.0402  37.5595 15.40584058  5833"}}, "geometry": {"type": "Point", "coordinates": [50.926880247268066, -7.605596219769984]}}, {"type": "Feature", "properties": {"norad_id": 66429, "name": "STARLINK-35533", "group": "last-30-days", "lat": 1.0452719344500983, "lon": 60.25525201981481, "alt_km": 443.03789104941916, "timestamp": "2025-12-10T18:56:58.831733+00:00", "meta": {"OBJECT_NAME": "STARLINK-35533", "OBJECT_ID": "2025-259H", "EPOCH": "2025-12-10T06:29:48.974208", "MEAN_MOTION": 15.40778112, "ECCENTRICITY": 3.59e-05, "INCLINATION": 42.9999, "RA_OF_ASC_NODE": 62.1246, "ARG_OF_PERICENTER": 312.8961, "MEAN_ANOMALY": 47.1866, "EPHEMERIS_TYPE": 0, "CLASSIFICATION_TYPE": "U", "NORAD_CAT_ID": 66429, "ELEMENT_SET_NO": 999, "REV_AT_EPOCH": 578, "BSTAR": 0.0018891, "MEAN_MOTION_DOT": 0.00079643, "MEAN_MOTION_DDOT": 0}, "tle": {"line1": "1 66429U 25259H   25344.27070572  .00079643  00000+0  18891-2 0  9995", "line2": "2 66429  42.9999  62.1246 0000359 312.8961  47.1866 15.40778112  5787"}}, "geometry": {"type": "Point", "coordinates": [60.25525201981481, 1.0452719344500983]}}, {"type": "Feature", "properties": {"norad_id": 66430, "name": "STARLINK-35470", "group": "last-30-days", "lat": 9.223198461950977, "lon": 69.14371444272298, "alt_km": 442.6687193749658, "timestamp": "2025-12-10T18:56:58.831744+00:00", "meta": {"OBJECT_NAME": "STARLINK-35470", "OBJECT_ID": "2025-259J", "EPOCH": "2025-12-10T12:00:02.998944", "MEAN_MOTION": 15.40676191, "ECCENTRICITY": 0.0001135, "INCLINATION": 43.0004, "RA_OF_ASC_NODE": 60.7774, "ARG_OF_PERICENTER": 267.5604, "MEAN_ANOMALY": 298.2888, "EPHEMERIS_TYPE": 0, "CLASSIFICATION_TYPE": "U", "NORAD_CAT_ID": 66430, "ELEMENT_SET_NO": 999, "REV_AT_EPOCH": 592, "BSTAR": 0.001762, "MEAN_MOTION_DOT": 0.00073959, "MEAN_MOTION_DDOT": 0}, "tle": {"line1": "1 66430U 25259J   25344.50003471  .00073959  00000+0  17620-2 0  9990", "line2": "2 66430  43.0004  60.7774 0001135 267.5604 298.2888 15.40676191  5924"}}, "geometry": {"type": "Point", "coordinates": [69.14371444272298, 9.223198461950977]}}, {"type": "Feature", "properties": {"norad_id": 66431, "name": "STARLINK-35439", "group": "last-30-days", "lat": 17.47573143402764, "lon": 78.82232462916281, "alt_km": 441.2141617560037, "timestamp": "2025-12-10T18:56:58.831754+00:00", "meta": {"OBJECT_NAME": "STARLINK-35439", "OBJECT_ID": "2025-259K", "EPOCH": "2025-12-10T12:00:02.998944", "MEAN_MOTION": 15.40650111, "ECCENTRICITY": 0.0001181, "INCLINATION": 43.0002, "RA_OF_ASC_NODE": 60.7449, "ARG_OF_PERICENTER": 301.4531, "MEAN_ANOMALY": 276.9544, "EPHEMERIS_TYPE": 0, "CLASSIFICATION_TYPE": "U", "NORAD_CAT_ID": 66431, "ELEMENT_SET_NO": 999, "REV_AT_EPOCH": 592, "BSTAR": 0.001621, "MEAN_MOTION_DOT": 0.000679, "MEAN_MOTION_DDOT": 0}, "tle": {"line1": "1 66431U 25259K   25344.50003471  .00067900  00000+0  16210-2 0  9994", "line2": "2 66431  43.0002  60.7449 0001181 301.4531 276.9544 15.40650111  5926"}}, "geometry": {"type": "Point", "coordinates": [78.82232462916281, 17.47573143402764]}}]}